RADUGA 1 [-]            
1 08513U 75123A   22330.84855906  .00000008  00000+0  00000+0 0  9996
2 08513   6.1442 286.3445 0007416 224.1482 286.4982  1.00284801181798
RADUGA 2 [-]            
1 09416U 76092A   22330.95125187 -.00000160  00000+0  00000+0 0  9998
2 09416   6.8081 288.3479 0027345   0.1209 202.9817  1.00290733116315
RADUGA 3 [-]            
1 10159U 77071A   22330.85292650 -.00000125  00000+0  00000+0 0  9992
2 10159   7.4253 290.9772 0009195 243.4574 280.1095  1.00188582164029
RADUGA 4 [-]            
1 10987U 78073A   22330.01196223  .00000121  00000+0  00000+0 0  9996
2 10987   8.0563 294.5424 0008524 357.2268 186.7215  1.00326438106577
RADUGA 5 [-]            
1 11343U 79035A   22330.95081605 -.00000132  00000+0  00000+0 0  9995
2 11343   8.5151 297.3225 0006217 177.7221  13.8378  1.00251075116309
RADUGA 6 [-]            
1 11708U 80016A   22330.85492625 -.00000181  00000+0  00000+0 0  9992
2 11708   8.8793 300.4312 0002929 213.5587 303.1968  1.00341667109143
RADUGA 7 [-]            
1 12003U 80081A   22330.78624861 -.00000183  00000+0  00000+0 0  9996
2 12003   9.0658 302.4019 0010244 267.8574 113.4381  1.00272812110405
RADUGA 8 [-]            
1 12351U 81027A   22330.81797664 -.00000296  00000+0  00000+0 0  9994
2 12351   9.3975 302.9801 0082245 232.5113 319.3822  1.00365269109514
RADUGA 9 [-]            
1 12618U 81069A   22330.85303437 -.00000139  00000+0  00000+0 0  9997
2 12618   9.6222 305.9826 0003361 162.3552 343.0191  1.00356417 34321
RADUGA 10 [-]           
1 12897U 81102A   22330.85686416 -.00000186  00000+0  00000+0 0  9997
2 12897   9.7086 306.9722 0005521 187.5831 325.1311  1.00270646104326
RADUGA 11 [-]           
1 13669U 82113A   22331.28751514 -.00000155  00000+0  00000+0 0  9994
2 13669  11.7773 320.8140 0038587 257.1451 282.7148  0.97709884108842
RADUGA 12 [-]           
1 13974U 83028A   22330.81228573 -.00000065  00000+0  00000+0 0  9991
2 13974  10.8717 316.8106 0001484 111.3792   1.5613  1.00294100156360
RADUGA 13 [-]           
1 14307U 83088A   22330.67241604 -.00000033  00000+0  00000+0 0  9997
2 14307  12.0319 322.3574 0014855  42.0362 171.3424  0.98173345106198
RADUGA 14 [-]           
1 14725U 84016A   22330.99077216 -.00000176  00000+0  00000+0 0  9992
2 14725  11.0870 320.6063 0004524 147.7194  38.2426  1.00255039105068
RADUGA 15 [-]           
1 15057U 84063A   22330.81710500 -.00000342  00000+0  00000+0 0  9999
2 15057  11.2116 321.5946 0005400 165.2245   2.4491  1.00266538128086
RADUGA 16 [-]           
1 15946U 85070A   22330.68731635  .00000119  00000+0  00000+0 0  9993
2 15946  11.6879 326.2842 0002118 179.0515   6.2286  1.00322101109202
RADUGA 17 [-]           
1 16250U 85107A   22330.60102924 -.00000004  00000+0  00000+0 0  9992
2 16250  11.8144 327.6881 0013837 188.6750   8.5897  1.00128970138666
RADUGA 18 [-]           
1 16497U 86007A   22330.82296367 -.00000015  00000+0  00000+0 0  9996
2 16497  12.6284 330.4079 0075346 168.4729 312.5438  0.98810680133036
RADUGA 19 [-]           
1 17046U 86082A   22330.35926502 -.00000090  00000+0  00000+0 0  9992
2 17046  13.0699 334.3617 0013193 154.5971 356.1670  0.98459836130121
RADUGA 20 [-]           
1 17611U 87028A   22330.75687400 -.00000138  00000+0  00000+0 0  9999
2 17611  15.0925 337.8649 0030448 141.9012  46.2321  0.95961978125838
RADUGA 21 [-]           
1 18631U 87100A   22331.21537771  .00000096  00000+0  00000+0 0  9992
2 18631  13.1620 335.1570 0003443 139.2116 245.3503  1.00327910128067
RADUGA 22 [-]           
1 19596U 88095A   22330.83939067 -.00000333  00000+0  00000+0 0  9993
2 19596  13.1593 339.4881 0007528 145.8085 348.5716  1.00180942108630
RADUGA 23 [-]           
1 19928U 89030A   22330.85252712 -.00000022  00000+0  00000+0 0  9994
2 19928  13.3147 341.3106 0021838 167.8617 287.7387  1.00362178121831
RADUGA-1 1 [-]          
1 20083U 89048A   22330.62530907 -.00000008  00000+0  00000+0 0  9991
2 20083  14.0779 344.3907 0022415 118.9221  90.5417  0.98707068118451
RADUGA 24 [-]           
1 20367U 89098A   22331.16507917  .00000102  00000+0  00000+0 0  9990
2 20367  13.8973 343.5531 0002095 152.2047  38.0026  1.00241047120014
RADUGA 25 [-]           
1 20499U 90016A   22330.62531314 -.00000148  00000+0  00000+0 0  9997
2 20499  13.6688 344.2269 0005308 152.1880  58.4828  1.00166162119884
RADUGA 26 [-]           
1 21016U 90112A   22330.85726440 -.00000164  00000+0  00000+0 0  9999
2 21016  13.9954 347.4781 0007075  98.4199   8.6774  1.00320961117245
RADUGA-1 2 [-]          
1 21038U 90116A   22330.15622855  .00000071  00000+0  00000+0 0  9991
2 21038  14.0347 347.5545 0008476 107.1707  79.8466  1.00303801 34313
RADUGA 27 [-]           
1 21132U 91014A   22330.72471012  .00000122  00000+0  00000+0 0  9991
2 21132  14.5432 347.0618 0003248 109.4007 256.3317  1.00318619116281
RADUGA 28 [-]           
1 21821U 91087A   22330.85431133 -.00000065  00000+0  00000+0 0  9997
2 21821  14.3223 350.8187 0007395 132.8598 322.4322  1.00182206113309
RADUGA 29 [-]           
1 22557U 93013A   22330.85028201 -.00000018  00000+0  00000+0 0  9991
2 22557  14.5456 354.9945 0007459 121.0237 318.7046  1.00381475108678
RADUGA 30 [-]           
1 22836U 93062A   22331.11646329 -.00000070  00000+0  00000+0 0  9990
2 22836  14.5935 356.9693 0001089 345.0240 197.2532  1.00261933106750
RADUGA-1 3 [-]          
1 22981U 94008A   22330.82184027 -.00000186  00000+0  00000+0 0  9999
2 22981  14.6757 358.1193 0003581 118.3792 329.8574  1.00218944105465
RADUGA 31 [-]           
1 23010U 94012A   22330.85737209 -.00000153  00000+0  00000+0 0  9991
2 23010  14.6459 358.1168 0005462 101.9954 352.7251  1.00339787105329
RADUGA 32 [-]           
1 23448U 94087A   22330.85431152 -.00000080  00000+0  00000+0 0  9995
2 23448  14.6390   0.8358 0005402 203.4844 241.3853  1.00262746119865
RADUGA-1 4 [-]          
1 25642U 99010A   22330.73002719  .00000061  00000+0  00000+0 0  9992
2 25642  15.2540  12.3794 0002629 237.6551 131.5300  1.00339905 86953
RADUGA-1 5 [-]          
1 26477U 00049A   22331.23199106  .00000075  00000+0  00000+0 0  9991
2 26477  13.2217  17.3436 0004777  71.5090 112.6647  1.00316947 81473
RADUGA-1 6 [-]          
1 26936U 01045A   22330.85361889 -.00000034  00000+0  00000+0 0  9990
2 26936  13.4136  23.6939 0016632 168.1430 251.5523  0.97743282 75882
RADUGA-1 7 [-]          
1 28194U 04010A   22330.84265367 -.00000347  00000+0  00000+0 0  9993
2 28194  12.1562  30.4982 0002407 181.8123 265.9421  1.00194757 68407
RADUGA-1M 1 [-]         
1 32373U 07058A   22330.79771691  .00000092  00000+0  00000+0 0  9994
2 32373   7.2546  62.9093 0000868  21.3095 308.6213  0.99395524 39488
RADUGA-1 8 [-]          
1 34264U 09010A   22330.54923826  .00000097  00000+0  00000+0 0  9992
2 34264   9.5443  52.8592 0013406   4.6808  48.0751  0.99825833 50206
RADUGA-1M 2 [+]         
1 36358U 10002A   22331.45382583 -.00000175  00000+0  00000+0 0  9999
2 36358   0.2574 100.2833 0003298 205.8344   8.6410  1.00269310 46999
RADUGA-1M 3 [+]         
1 39375U 13062A   22329.50700137  .00000171  00000+0  00000+0 0  9997
2 39375   2.6404  87.8913 0001795 120.2049  73.8729  1.00273564 33090
